{"fetched_at":"2026-07-23T17:56:00.576Z","source":"https://celestrak.org/NORAD/elements/gp.php?NAME=WORLDVIEW&FORMAT=JSON","constellation":"worldview","records":[{"OBJECT_NAME":"WORLDVIEW-1 (WV-1)","OBJECT_ID":"2007-041A","EPOCH":"2026-07-23T06:17:49.269120","CLASSIFICATION_TYPE":"U","MEAN_MOTION":15.24624893,"ECCENTRICITY":0.00023096,"INCLINATION":97.3902,"RA_OF_ASC_NODE":323.5035,"ARG_OF_PERICENTER":176.1992,"MEAN_ANOMALY":183.9264,"EPHEMERIS_TYPE":0,"NORAD_CAT_ID":32060,"ELEMENT_SET_NO":999,"REV_AT_EPOCH":4837,"BSTAR":0.00023989567,"MEAN_MOTION_DOT":0.00005849,"MEAN_MOTION_DDOT":0},{"OBJECT_NAME":"WORLDVIEW-2 (WV-2)","OBJECT_ID":"2009-055A","EPOCH":"2026-07-23T06:41:31.903872","CLASSIFICATION_TYPE":"U","MEAN_MOTION":14.37908592,"ECCENTRICITY":0.00055453,"INCLINATION":98.475,"RA_OF_ASC_NODE":277.2369,"ARG_OF_PERICENTER":110.6811,"MEAN_ANOMALY":249.4971,"EPHEMERIS_TYPE":0,"NORAD_CAT_ID":35946,"ELEMENT_SET_NO":999,"REV_AT_EPOCH":88083,"BSTAR":0.000039152841,"MEAN_MOTION_DOT":7.5e-7,"MEAN_MOTION_DDOT":0},{"OBJECT_NAME":"WORLDVIEW-3 (WV-3)","OBJECT_ID":"2014-048A","EPOCH":"2026-07-23T06:46:52.586112","CLASSIFICATION_TYPE":"U","MEAN_MOTION":14.85073409,"ECCENTRICITY":0.00018688,"INCLINATION":97.855,"RA_OF_ASC_NODE":278.615,"ARG_OF_PERICENTER":143.3891,"MEAN_ANOMALY":216.7452,"EPHEMERIS_TYPE":0,"NORAD_CAT_ID":40115,"ELEMENT_SET_NO":999,"REV_AT_EPOCH":64726,"BSTAR":0.000082501471,"MEAN_MOTION_DOT":0.00000651,"MEAN_MOTION_DDOT":0}]}
